P/2011 Y2 (Boattini),e,6.3929,309.3196,132.0928,6.225872,0.0634459,0.71116150,319.3142,12/30.0/2025,2000,g 15.0,4.0
# From MPC 93583
C/2012 A1 (PANSTARRS),e,121.0095,277.8723,191.9411,20096,0.0000003,0.99962124,0.0000,11/29.7069/2013,2000,g  6.0,4.0
# From unp
P/2012 A3 (SOHO),e,11.0153,174.5573,219.8279,2.584236,0.2372498,0.77006170,129.1432,12/30.0/2025,2000,g 17.0,4.0
# From MPEC 2022-K19
P/2012 B1 (PANSTARRS),e,7.6051,36.2084,161.8643,6.544504,0.0588693,0.41042707,270.0229,12/30.0/2025,2000,g  9.0,4.0
# From MPC 84931
P/2012 F2 (PANSTARRS),e,14.6957,226.9108,33.1860,6.349961,0.0615953,0.54118115,287.6819,12/30.0/2025,2000,g 12.0,4.0
# From MPEC 2022-ED3
P/2012 G1 (PANSTARRS),e,12.1684,283.2309,266.0143,4.161714,0.1160903,0.32985665,222.6276,12/30.0/2025,2000,g 15.0,4.0
# From MPC103843
C/2012 K1 (PANSTARRS),e,142.5877,317.7621,203.1901,7557,0.0000015,0.99985989,0.0000,08/23.3800/2014,2000,g  5.6,3.2
# From MPC 80898
P/2012 K3 (Gibbs),e,13.1814,125.8020,172.1149,3.633605,0.1422976,0.42174746,331.8471,12/30.0/2025,2000,g 15.0,4.0
# From MPC100577
C/2012 K8 (Lemmon),h,08/20.6550/2014,105.9791,312.7288,75.8496,1.000826,6.460712,2000,6.0,4.0
# From MPC112389
C/2012 LP26 (Palomar),h,08/12.7477/2015,25.3592,154.0860,145.3326,1.001510,6.572047,2000,6.5,4.0
# From MPC 81470
P/2012 O1 (McNaught),e,7.4280,91.9398,238.2767,3.542596,0.1478160,0.59348223,8.7046,12/30.0/2025,2000,g 17.5,4.0
# From MPC 80899
P/2012 O2 (McNaught),e,24.4557,120.6587,183.3958,3.630908,0.1424562,0.53128390,346.8240,12/30.0/2025,2000,g 17.0,4.0
# From MPC115880
C/2012 Q1 (Kowalski),e,45.1639,184.4762,139.4991,26.22833,0.0073375,0.63632034,37.2488,12/30.0/2025,2000,g  4.0,4.0
# From MPEC 2025-W75
C/2012 S1 (ISON),h,11/28.0247/2013,58.4739,297.0171,345.1237,1.000003,0.014255,2000,8.5,3.2
# From MPC 80900
P/2012 T3 (PANSTARRS),e,9.5535,114.3203,195.4355,6.161599,0.0644413,0.61559813,322.1156,12/30.0/2025,2000,g 15.0,4.0
# From MPC108592
C/2012 X1 (LINEAR),e,44.2881,113.3515,132.1585,159.4780,0.0004894,0.98987244,0.0000,02/15.3670/2014,2000,g  4.8,3.6
# From MPC103843
C/2013 A1 (Siding Spring),h,10/26.4907/2014,128.7610,301.1988,2.5656,1.000096,1.401087,2000,8.2,2.4
# From MPEC 2025-YF1
C/2013 C2 (Tenagra),e,21.3727,247.5816,308.7397,15.87329,0.0155849,0.42590479,58.8369,12/30.0/2025,2000,g  4.0,4.0
# From MPEC 2013-Y32
P/2013 CU129 (PANSTARRS),e,11.8321,45.6734,212.9669,2.903549,0.1992096,0.71602341,191.9850,12/30.0/2025,2000,g 18.0,2.0
# From MPC 90270
C/2013 E1 (McNaught),e,158.7119,133.8242,311.3598,6845,0.0000017,0.99886604,0.0000,06/10.2319/2013,2000,g  5.5,4.0
# From MPC 91612
P/2013 G1 (Kowalski),e,5.4569,221.3084,51.3126,6.909256,0.0542697,0.51013508,240.1067,12/30.0/2025,2000,g 11.0,4.0
# From MPC 84025
P/2013 G4 (PANSTARRS),e,5.9199,339.5871,214.5108,4.431955,0.1056358,0.40967170,136.2147,12/30.0/2025,2000,g 15.0,4.0
# From MPC 91613
P/2013 J2 (McNaught),e,15.4995,289.2830,37.8303,6.231991,0.0633525,0.65567179,285.8883,12/30.0/2025,2000,g 13.0,4.0
# From MPC111767
C/2013 P3 (Palomar),h,11/25.2695/2014,93.8482,177.3572,177.3545,1.002241,8.688956,2000,5.5,4.0
# From MPC 96865
C/2013 P4 (PANSTARRS),e,4.2600,256.4942,113.8904,14.78395,0.0173388,0.59407177,72.1232,12/30.0/2025,2000,g  7.5,4.0
# From MPEC 2022-V95
P/2013 R3 (Catalina-PANSTARRS),e,0.8666,341.7390,11.3814,3.030607,0.1868141,0.27806905,121.2451,12/30.0/2025,2000,g 14.0,4.0
# From MPC 86643
P/2013 T2 (Schwartz),e,9.4463,0.7982,345.5603,3.493788,0.1509243,0.50012769,335.3401,12/30.0/2025,2000,g 16.0,4.0
# From MPC110080
C/2013 US10 (Catalina),h,11/12.1375/2015,148.9110,186.2036,340.2532,1.000140,0.814950,2000,4.4,4.0
# From MPC111767
C/2013 V4 (Catalina),h,10/10.3677/2015,67.9834,55.5559,40.4408,1.000403,5.182733,2000,6.0,4.0
# From MPC 91613
P/2013 W1 (PANSTARRS),e,4.7002,117.8372,1.2649,3.484052,0.1515574,0.59391937,293.1749,12/30.0/2025,2000,g 17.5,4.0
# From MPC109141
C/2013 W2 (PANSTARRS),e,4.8521,178.2666,303.8865,9.613323,0.0330669,0.54783810,133.8740,12/30.0/2025,2000,g 13.5,2.0
# From MPC111767
C/2013 X1 (PANSTARRS),h,04/23.5898/2016,163.0766,132.0465,165.4822,1.000945,1.313494,2000,10.5,2.0
# From MPC101095
P/2013 YG46 (Spacewatch),e,7.2014,42.1978,249.4225,3.246654,0.1684807,0.47862376,178.8858,12/30.0/2025,2000,g 10.0,4.0
# From MPC108592
C/2014 A4 (SONEAR),h,09/05.5187/2015,121.3557,29.6899,356.8747,1.000060,4.205988,2000,6.0,4.0
# From MPEC 2022-HC2
C/2014 B1 (Schwartz),h,09/09.2142/2017,28.3850,161.3019,345.7277,1.000251,9.534541,2000,4.0,4.0
# From MPEC 2024-F34
P/2014 C1 (TOTAS),e,3.1979,39.6598,188.0484,4.035842,0.1215634,0.34000128,248.5778,12/30.0/2025,2000,g 15.5,4.0
# From MPC181177
C/2014 F3 (Sheppard-Trujillo),e,6.5209,325.9845,5.1097,14.37124,0.0180910,0.60111812,30.3624,12/30.0/2025,2000,g  6.0,4.0
# From MPC 98560
P/2014 L2 (NEOWISE),e,5.1887,149.3279,182.6689,6.314541,0.0621143,0.64591854,260.0880,12/30.0/2025,2000,g 12.0,4.0
# From MPEC 2022-M88
C/2014 M2 (Christensen),e,32.3341,245.4028,40.4282,1300,0.0000210,0.99465976,0.0000,07/07.8266/2014,2000,g  6.0,4.0
# From MPC 98560
P/2014 O3 (PANSTARRS),e,7.7889,87.6240,204.5783,7.588686,0.0471470,0.38237544,202.4170,12/30.0/2025,2000,g 10.5,4.0
# From MPEC 2021-J28
C/2014 OE4 (PANSTARRS),h,12/06.8605/2016,81.2517,240.4526,65.8661,1.000177,6.262696,2000,11.0,2.0
# From MPEC 2025-YF1
C/2014 OG392 (PANSTARRS),e,9.0321,145.8297,255.4904,12.25400,0.0229767,0.18486014,33.3416,12/30.0/2025,2000,g  6.0,4.0
# From MPC115880
C/2014 Q2 (Lovejoy),e,80.7019,94.8453,12.3330,402.2801,0.0001222,0.99680819,0.0000,01/31.0080/2015,2000,g  2.7,10.0
# From MPEC 2021-F20
C/2014 R3 (PANSTARRS),e,90.7791,333.9872,113.3394,68075,0.0000001,0.99989332,0.0000,08/08.8822/2016,2000,g  6.5,4.0
# From MPEC 2025-YF1
C/2014 UN271 (Bernardinelli-Bernstein),h,01/16.1825/2031,95.4460,189.9821,326.0757,1.004333,10.960579,2000,2.5,3.2
# From MPC 95211
P/2014 V1 (PANSTARRS),e,22.4959,166.1686,177.6301,5.482806,0.0767715,0.53327513,306.4422,12/30.0/2025,2000,g 14.0,4.0
# From MPC105542
P/2014 W4 (PANSTARRS),e,15.2826,33.2827,67.8070,6.578456,0.0584142,0.35523395,212.7103,12/30.0/2025,2000,g 11.0,4.0
# From MPC 99270
P/2015 B1 (PANSTARRS),e,18.0955,352.8409,188.6490,9.471118,0.0338144,0.36726567,127.3583,12/30.0/2025,2000,g  8.5,4.0
# From MPC 98561
C/2015 D2 (PANSTARRS),e,31.9231,162.7185,292.3394,12.79650,0.0215312,0.56197437,96.2169,12/30.0/2025,2000,g  8.0,4.0
# From MPEC 2020-L06
C/2015 D3 (PANSTARRS),e,128.5690,156.8976,2.6297,12709,0.0000007,0.99936006,0.0000,04/25.2335/2016,2000,g  5.5,4.0
# From MPC109141
P/2015 D5 (Kowalski),e,20.5475,74.0811,39.6604,8.944069,0.0368469,0.49205584,157.6798,12/30.0/2025,2000,g  9.0,4.0
# From MPEC 2024-R10
P/2015 D6 (Lemmon-PANSTARRS),e,20.3397,45.2728,125.9975,7.116970,0.0519112,0.36310726,198.8961,12/30.0/2025,2000,g 10.5,4.0
# From MPEC 2021-F20
C/2015 ER61 (PANSTARRS),e,6.3072,234.9419,68.7904,474.1416,0.0000955,0.99775704,0.0000,05/05.4707/2017,2000,g 11.0,2.0
# From MPC107684
P/2015 M2 (PANSTARRS),e,3.9677,86.6977,225.5742,7.255789,0.0504286,0.17763957,190.5702,12/30.0/2025,2000,g  8.5,4.0
# From MPEC 2021-P47
C/2015 O1 (PANSTARRS),h,02/18.2592/2018,27.1049,299.7040,89.8462,1.001784,3.746358,2000,6.5,4.0
# From MPEC 2022-K19
P/2015 PD229 (Cameron-ISON),e,2.0194,342.7502,352.6305,7.209875,0.0509111,0.32466717,193.4179,12/30.0/2025,2000,g 11.5,2.0
# From MPC 95734
P/2015 R2 (PANSTARRS),e,15.4827,168.6017,149.8793,4.478927,0.1039784,0.45183312,39.4393,12/30.0/2025,2000,g 14.5,4.0
# From MPC102097
C/2015 T5 (Sheppard-Tholen),e,11.0194,311.2524,62.2215,28.44325,0.0064973,0.66996982,23.5298,12/30.0/2025,2000,g  7.5,4.0
# From MPEC 2025-XC7
P/2015 TO19 (Lemmon-PANSTARRS),e,6.5049,321.6046,89.4433,4.547521,0.1016347,0.35985508,3.6622,12/30.0/2025,2000,g 14.0,4.0
# From MPC110080
P/2015 TP200 (LINEAR),e,8.7772,6.8729,82.6563,7.263305,0.0503504,0.53728671,168.3018,12/30.0/2025,2000,g 11.0,4.0
# From MPC115881
C/2015 V1 (PANSTARRS),e,139.1824,197.3122,179.9104,85970,0.0000000,0.99995011,0.0000,12/19.0626/2017,2000,g  6.5,4.0
# From MPC112390
C/2015 V2 (Johnson),h,06/08.9363/2017,49.7871,70.0478,164.7467,1.000800,1.636168,2000,5.0,4.0
# From MPC104791
C/2015 V4 (PANSTARRS),e,60.7738,179.7933,306.7818,18.43206,0.0124550,0.70531961,42.4517,12/30.0/2025,2000,g  8.5,4.0
# From MPEC 2022-OB6
C/2015 XY1 (Lemmon),h,04/27.6462/2018,148.8591,281.5258,196.3217,1.001321,7.950954,2000,5.5,4.0
# From MPEC 2023-J29
P/2015 X3 (PANSTARRS),e,24.4210,77.2519,306.9960,4.995838,0.0882656,0.43966218,333.7197,12/30.0/2025,2000,g 15.0,4.0
# From MPC119995
C/2015 X5 (PANSTARRS),h,12/28.1364/2017,124.3790,122.2021,27.6768,1.000404,6.812491,2000,7.5,4.0
# From MPC115881
P/2015 X6 (PANSTARRS),e,4.5662,106.9296,329.5498,2.752199,0.2158661,0.17405966,50.3259,12/30.0/2025,2000,g 16.0,4.0
# From MPEC 2022-O08
C/2016 A1 (PANSTARRS),e,121.2769,128.0098,10.1760,10264,0.0000009,0.99948065,0.0000,11/20.0332/2017,2000,g  6.0,4.0
# From MPEC 2022-OB6
P/2016 A3 (PANSTARRS),e,8.5249,187.1089,340.8140,7.865676,0.0446786,0.38743374,141.5477,12/30.0/2025,2000,g 10.0,4.0
# From MPC102098
P/2016 A7 (PANSTARRS),e,16.1345,219.9843,353.1094,5.083678,0.0859878,0.56908263,315.8290,12/30.0/2025,2000,g 16.0,4.0
# From MPEC 2020-L06
C/2016 C1 (PANSTARRS),h,02/18.1060/2016,56.2082,181.7262,328.5155,1.001433,8.428455,2000,5.5,4.0
# From MPEC 2020-L06
C/2016 E1 (PANSTARRS),h,05/27.6928/2017,131.8687,233.1430,47.2309,1.001582,8.160419,2000,6.5,4.0
# From MPEC 2021-P47
P/2016 G1 (PANSTARRS),e,10.9705,204.0088,111.0773,2.583299,0.2373789,0.20989391,54.0979,12/30.0/2025,2000,g 14.0,4.0
# From MPEC 2022-ED3
C/2016 M1 (PANSTARRS),e,90.7330,92.2981,209.8426,2277,0.0000091,0.99902876,0.0000,08/07.9992/2018,2000,g  5.0,4.0
# From MPEC 2021-P47
C/2016 N6 (PANSTARRS),e,105.9414,298.7264,162.6593,991.3700,0.0000316,0.99730366,0.0000,07/16.1490/2018,2000,g  7.0,4.0
# From MPC102099
P/2016 P1 (PANSTARRS),e,24.4915,318.9510,271.2698,3.201199,0.1720819,0.28683235,285.6933,12/30.0/2025,2000,g 15.0,4.0
# From MPEC 2025-W75
